{
  "type": "FeatureCollection",
  "features": [
    {
      "type": "Feature",
      "properties": {
        "norad_id": 38867,
        "name": "INTELSAT 23 (IS-23)",
        "group": "intelsat",
        "lat": -0.033769472294148645,
        "lon": -10.60628598099418,
        "alt_km": 35796.864910222816,
        "timestamp": "2025-12-09T21:34:11.074908+00:00",
        "meta_object_name": "INTELSAT 23 (IS-23)",
        "meta_object_id": "2012-057A",
        "meta_epoch": "2025-12-09T11:36:33.967008",
        "meta_mean_motion": 1.00260409,
        "meta_eccentricity": 0.0002031,
        "meta_inclination": 0.0423,
        "meta_ra_of_asc_node": 93.9741,
        "meta_arg_of_pericenter": 103.251,
        "meta_mean_anomaly": 2.3642,
        "meta_ephemeris_type": 0,
        "meta_classification_type": "U",
        "meta_norad_cat_id": 38867,
        "meta_element_set_no": 999,
        "meta_rev_at_epoch": 4805,
        "meta_bstar": 0,
        "meta_mean_motion_dot": -2.82e-06,
        "meta_mean_motion_ddot": 0,
        "tle_line1": "1 38867U 12057A   25343.48372647 -.00000282  00000+0  00000+0 0  9996",
        "tle_line2": "2 38867   0.0423  93.9741 0002031 103.2510   2.3642  1.00260409 48050"
      },
      "geometry": {
        "type": "Point",
        "coordinates": [
          -10.60628598099418,
          -0.033769472294148645
        ]
      }
    },
    {
      "type": "Feature",
      "properties": {
        "norad_id": 39360,
        "name": "FM-6",
        "group": "intelsat",
        "lat": -0.004018595032562491,
        "lon": -73.69471793064454,
        "alt_km": 35791.364821189425,
        "timestamp": "2025-12-09T21:34:11.074919+00:00",
        "meta_object_name": "FM-6",
        "meta_object_id": "2013-058A",
        "meta_epoch": "2025-12-09T13:10:20.280576",
        "meta_mean_motion": 1.00269305,
        "meta_eccentricity": 0.00028552,
        "meta_inclination": 0.007,
        "meta_ra_of_asc_node": 81.8262,
        "meta_arg_of_pericenter": 91.8645,
        "meta_mean_anomaly": 346.2842,
        "meta_ephemeris_type": 0,
        "meta_classification_type": "U",
        "meta_norad_cat_id": 39360,
        "meta_element_set_no": 999,
        "meta_rev_at_epoch": 4417,
        "meta_bstar": 0,
        "meta_mean_motion_dot": -1.4e-07,
        "meta_mean_motion_ddot": 0,
        "tle_line1": "1 39360U 13058A   25343.54884584 -.00000014  00000+0  00000+0 0  9995",
        "tle_line2": "2 39360   0.0070  81.8262 0002855  91.8645 346.2842  1.00269305 44171"
      },
      "geometry": {
        "type": "Point",
        "coordinates": [
          -73.69471793064454,
          -0.004018595032562491
        ]
      }
    },
    {
      "type": "Feature",
      "properties": {
        "norad_id": 40271,
        "name": "INTELSAT 30 (IS-30)",
        "group": "intelsat",
        "lat": -0.02578033369957127,
        "lon": -52.64854511005227,
        "alt_km": 35790.686488891384,
        "timestamp": "2025-12-09T21:34:11.074931+00:00",
        "meta_object_name": "INTELSAT 30 (IS-30)",
        "meta_object_id": "2014-062A",
        "meta_epoch": "2025-12-09T12:22:48.556128",
        "meta_mean_motion": 1.00269053,
        "meta_eccentricity": 0.00012996,
        "meta_inclination": 0.0144,
        "meta_ra_of_asc_node": 15.4205,
        "meta_arg_of_pericenter": 65.9123,
        "meta_mean_anomaly": 87.8151,
        "meta_ephemeris_type": 0,
        "meta_classification_type": "U",
        "meta_norad_cat_id": 40271,
        "meta_element_set_no": 999,
        "meta_rev_at_epoch": 488,
        "meta_bstar": 0,
        "meta_mean_motion_dot": -1.48e-06,
        "meta_mean_motion_ddot": 0,
        "tle_line1": "1 40271U 14062A   25343.51583977 -.00000148  00000+0  00000+0 0  9991",
        "tle_line2": "2 40271   0.0144  15.4205 0001299  65.9123  87.8151  1.00269053  4885"
      },
      "geometry": {
        "type": "Point",
        "coordinates": [
          -52.64854511005227,
          -0.02578033369957127
        ]
      }
    },
    {
      "type": "Feature",
      "properties": {
        "norad_id": 40333,
        "name": "DIRECTV 14",
        "group": "intelsat",
        "lat": -0.01942659977973411,
        "lon": -56.75046827716641,
        "alt_km": 35780.062888514825,
        "timestamp": "2025-12-09T21:34:11.074942+00:00",
        "meta_object_name": "DIRECTV 14",
        "meta_object_id": "2014-078B",
        "meta_epoch": "2025-12-09T10:14:01.480992",
        "meta_mean_motion": 1.00285429,
        "meta_eccentricity": 9.851e-05,
        "meta_inclination": 0.0183,
        "meta_ra_of_asc_node": 330.534,
        "meta_arg_of_pericenter": 274.6028,
        "meta_mean_anomaly": 247.5776,
        "meta_ephemeris_type": 0,
        "meta_classification_type": "U",
        "meta_norad_cat_id": 40333,
        "meta_element_set_no": 999,
        "meta_rev_at_epoch": 4014,
        "meta_bstar": 0,
        "meta_mean_motion_dot": -1.25e-06,
        "meta_mean_motion_ddot": 0,
        "tle_line1": "1 40333U 14078B   25343.42640603 -.00000125  00000+0  00000+0 0  9992",
        "tle_line2": "2 40333   0.0183 330.5340 0000985 274.6028 247.5776  1.00285429 40144"
      },
      "geometry": {
        "type": "Point",
        "coordinates": [
          -56.75046827716641,
          -0.01942659977973411
        ]
      }
    },
    {
      "type": "Feature",
      "properties": {
        "norad_id": 40663,
        "name": "DIRECTV 15",
        "group": "intelsat",
        "lat": -0.03421894258449738,
        "lon": -60.44494599947831,
        "alt_km": 35785.55022182768,
        "timestamp": "2025-12-09T21:34:11.074953+00:00",
        "meta_object_name": "DIRECTV 15",
        "meta_object_id": "2015-026A",
        "meta_epoch": "2025-12-09T13:13:12.938880",
        "meta_mean_motion": 1.00269129,
        "meta_eccentricity": 3.073e-05,
        "meta_inclination": 0.0394,
        "meta_ra_of_asc_node": 81.8436,
        "meta_arg_of_pericenter": 210.8275,
        "meta_mean_anomaly": 241.3048,
        "meta_ephemeris_type": 0,
        "meta_classification_type": "U",
        "meta_norad_cat_id": 40663,
        "meta_element_set_no": 999,
        "meta_rev_at_epoch": 3856,
        "meta_bstar": 0,
        "meta_mean_motion_dot": -1e-06,
        "meta_mean_motion_ddot": 0,
        "tle_line1": "1 40663U 15026A   25343.55084420 -.00000100  00000+0  00000+0 0  9998",
        "tle_line2": "2 40663   0.0394  81.8436 0000307 210.8275 241.3048  1.00269129 38566"
      },
      "geometry": {
        "type": "Point",
        "coordinates": [
          -60.44494599947831,
          -0.03421894258449738
        ]
      }
    },
    {
      "type": "Feature",
      "properties": {
        "norad_id": 40664,
        "name": "SKY MEXICO-1",
        "group": "intelsat",
        "lat": -0.02738736349144833,
        "lon": -36.317809631071974,
        "alt_km": 35778.86408918349,
        "timestamp": "2025-12-09T21:34:11.074965+00:00",
        "meta_object_name": "SKY MEXICO-1",
        "meta_object_id": "2015-026B",
        "meta_epoch": "2025-12-09T13:11:54.834144",
        "meta_mean_motion": 1.0027076,
        "meta_eccentricity": 0.00027437,
        "meta_inclination": 0.0255,
        "meta_ra_of_asc_node": 62.1436,
        "meta_arg_of_pericenter": 212.1489,
        "meta_mean_anomaly": 283.4587,
        "meta_ephemeris_type": 0,
        "meta_classification_type": "U",
        "meta_norad_cat_id": 40664,
        "meta_element_set_no": 999,
        "meta_rev_at_epoch": 3855,
        "meta_bstar": 0,
        "meta_mean_motion_dot": -2.32e-06,
        "meta_mean_motion_ddot": 0,
        "tle_line1": "1 40664U 15026B   25343.54994021 -.00000232  00000+0  00000+0 0  9991",
        "tle_line2": "2 40664   0.0255  62.1436 0002743 212.1489 283.4587  1.00270760 38550"
      },
      "geometry": {
        "type": "Point",
        "coordinates": [
          -36.317809631071974,
          -0.02738736349144833
        ]
      }
    },
    {
      "type": "Feature",
      "properties": {
        "norad_id": 40874,
        "name": "INTELSAT 34 (IS-34)",
        "group": "intelsat",
        "lat": 0.012446422030761817,
        "lon": -13.069339011053431,
        "alt_km": 35789.015749099104,
        "timestamp": "2025-12-09T21:34:11.074976+00:00",
        "meta_object_name": "INTELSAT 34 (IS-34)",
        "meta_object_id": "2015-039A",
        "meta_epoch": "2025-12-09T13:18:24.212160",
        "meta_mean_motion": 1.00270174,
        "meta_eccentricity": 5.837e-05,
        "meta_inclination": 0.0128,
        "meta_ra_of_asc_node": 307.095,
        "meta_arg_of_pericenter": 223.5421,
        "meta_mean_anomaly": 52.0138,
        "meta_ephemeris_type": 0,
        "meta_classification_type": "U",
        "meta_norad_cat_id": 40874,
        "meta_element_set_no": 999,
        "meta_rev_at_epoch": 3772,
        "meta_bstar": 0,
        "meta_mean_motion_dot": -2.83e-06,
        "meta_mean_motion_ddot": 0,
        "tle_line1": "1 40874U 15039A   25343.55444690 -.00000283  00000+0  00000+0 0  9997",
        "tle_line2": "2 40874   0.0128 307.0950 0000583 223.5421  52.0138  1.00270174 37725"
      },
      "geometry": {
        "type": "Point",
        "coordinates": [
          -13.069339011053431,
          0.012446422030761817
        ]
      }
    }
  ]
}